{
  "type": "FeatureCollection",
  "features": [
    {
      "type": "Feature",
      "properties": {
        "norad_id": 33860,
        "name": "IRIDIUM 33 DEB",
        "group": "iridium-33-debris",
        "lat": 50.09333306705109,
        "lon": -154.53271231794616,
        "alt_km": 667.6087079207409,
        "timestamp": "2025-12-06T22:38:43.113270+00:00",
        "meta_object_name": "IRIDIUM 33 DEB",
        "meta_object_id": "1997-051AD",
        "meta_epoch": "2025-12-06T14:28:14.396160",
        "meta_mean_motion": 14.67248023,
        "meta_eccentricity": 0.00082636,
        "meta_inclination": 86.3839,
        "meta_ra_of_asc_node": 29.9545,
        "meta_arg_of_pericenter": 18.1791,
        "meta_mean_anomaly": 113.4644,
        "meta_ephemeris_type": 0,
        "meta_classification_type": "U",
        "meta_norad_cat_id": 33860,
        "meta_element_set_no": 999,
        "meta_rev_at_epoch": 88632,
        "meta_bstar": 0.0020522142,
        "meta_mean_motion_dot": 0.00011597,
        "meta_mean_motion_ddot": 0,
        "tle_line1": "1 33860U 97051AD  25340.60294440  .00011597  00000+0  20522-2 0  9990",
        "tle_line2": "2 33860  86.3839  29.9545 0008263  18.1791 113.4644 14.67248023886326"
      },
      "geometry": {
        "type": "Point",
        "coordinates": [
          -154.53271231794616,
          50.09333306705109
        ]
      }
    },
    {
      "type": "Feature",
      "properties": {
        "norad_id": 33862,
        "name": "IRIDIUM 33 DEB",
        "group": "iridium-33-debris",
        "lat": 58.11395424390848,
        "lon": -145.70717572662545,
        "alt_km": 625.8854296666586,
        "timestamp": "2025-12-06T22:38:43.113282+00:00",
        "meta_object_name": "IRIDIUM 33 DEB",
        "meta_object_id": "1997-051AF",
        "meta_epoch": "2025-12-06T16:06:19.016352",
        "meta_mean_motion": 14.69329507,
        "meta_eccentricity": 0.00538322,
        "meta_inclination": 86.4092,
        "meta_ra_of_asc_node": 40.2062,
        "meta_arg_of_pericenter": 89.4198,
        "meta_mean_anomaly": 31.4086,
        "meta_ephemeris_type": 0,
        "meta_classification_type": "U",
        "meta_norad_cat_id": 33862,
        "meta_element_set_no": 999,
        "meta_rev_at_epoch": 88734,
        "meta_bstar": 0.0024762075,
        "meta_mean_motion_dot": 0.0001499,
        "meta_mean_motion_ddot": 0,
        "tle_line1": "1 33862U 97051AF  25340.67105343  .00014990  00000+0  24762-2 0  9992",
        "tle_line2": "2 33862  86.4092  40.2062 0053832  89.4198  31.4086 14.69329507887345"
      },
      "geometry": {
        "type": "Point",
        "coordinates": [
          -145.70717572662545,
          58.11395424390848
        ]
      }
    },
    {
      "type": "Feature",
      "properties": {
        "norad_id": 33866,
        "name": "IRIDIUM 33 DEB",
        "group": "iridium-33-debris",
        "lat": 25.542974236637725,
        "lon": 97.25974895569267,
        "alt_km": 880.4638496401103,
        "timestamp": "2025-12-06T22:38:43.113294+00:00",
        "meta_object_name": "IRIDIUM 33 DEB",
        "meta_object_id": "1997-051AK",
        "meta_epoch": "2025-12-06T14:11:47.218272",
        "meta_mean_motion": 14.25241969,
        "meta_eccentricity": 0.01139826,
        "meta_inclination": 86.3005,
        "meta_ra_of_asc_node": 95.6368,
        "meta_arg_of_pericenter": 180.9906,
        "meta_mean_anomaly": 200.1647,
        "meta_ephemeris_type": 0,
        "meta_classification_type": "U",
        "meta_norad_cat_id": 33866,
        "meta_element_set_no": 999,
        "meta_rev_at_epoch": 86723,
        "meta_bstar": 0.0013124184,
        "meta_mean_motion_dot": 3.32e-05,
        "meta_mean_motion_ddot": 0,
        "tle_line1": "1 33866U 97051AK  25340.59151873  .00003320  00000+0  13124-2 0  9991",
        "tle_line2": "2 33866  86.3005  95.6368 0113982 180.9906 200.1647 14.25241969867233"
      },
      "geometry": {
        "type": "Point",
        "coordinates": [
          97.25974895569267,
          25.542974236637725
        ]
      }
    },
    {
      "type": "Feature",
      "properties": {
        "norad_id": 33867,
        "name": "IRIDIUM 33 DEB",
        "group": "iridium-33-debris",
        "lat": 76.63258486119102,
        "lon": 8.62617338637826,
        "alt_km": 376.5740591994045,
        "timestamp": "2025-12-06T22:38:43.113305+00:00",
        "meta_object_name": "IRIDIUM 33 DEB",
        "meta_object_id": "1997-051AL",
        "meta_epoch": "2025-12-06T13:04:06.627360",
        "meta_mean_motion": 15.58002769,
        "meta_eccentricity": 0.00124504,
        "meta_inclination": 86.3617,
        "meta_ra_of_asc_node": 353.2987,
        "meta_arg_of_pericenter": 93.4662,
        "meta_mean_anomaly": 266.8026,
        "meta_ephemeris_type": 0,
        "meta_classification_type": "U",
        "meta_norad_cat_id": 33867,
        "meta_element_set_no": 999,
        "meta_rev_at_epoch": 89414,
        "meta_bstar": 0.0092198689,
        "meta_mean_motion_dot": 0.00758101,
        "meta_mean_motion_ddot": 0,
        "tle_line1": "1 33867U 97051AL  25340.54452115  .00758101  00000+0  92199-2 0  9993",
        "tle_line2": "2 33867  86.3617 353.2987 0012450  93.4662 266.8026 15.58002769894148"
      },
      "geometry": {
        "type": "Point",
        "coordinates": [
          8.62617338637826,
          76.63258486119102
        ]
      }
    },
    {
      "type": "Feature",
      "properties": {
        "norad_id": 33870,
        "name": "IRIDIUM 33 DEB",
        "group": "iridium-33-debris",
        "lat": 56.12266860113228,
        "lon": 66.1628032243752,
        "alt_km": 745.5923148422044,
        "timestamp": "2025-12-06T22:38:43.113316+00:00",
        "meta_object_name": "IRIDIUM 33 DEB",
        "meta_object_id": "1997-051AP",
        "meta_epoch": "2025-12-06T12:28:59.486880",
        "meta_mean_motion": 14.45799648,
        "meta_eccentricity": 0.00207971,
        "meta_inclination": 86.3754,
        "meta_ra_of_asc_node": 60.9268,
        "meta_arg_of_pericenter": 198.6792,
        "meta_mean_anomaly": 175.3723,
        "meta_ephemeris_type": 0,
        "meta_classification_type": "U",
        "meta_norad_cat_id": 33870,
        "meta_element_set_no": 999,
        "meta_rev_at_epoch": 88047,
        "meta_bstar": 0.0015682537,
        "meta_mean_motion_dot": 5.596e-05,
        "meta_mean_motion_ddot": 0,
        "tle_line1": "1 33870U 97051AP  25340.52013295  .00005596  00000+0  15683-2 0  9993",
        "tle_line2": "2 33870  86.3754  60.9268 0020797 198.6792 175.3723 14.45799648880476"
      },
      "geometry": {
        "type": "Point",
        "coordinates": [
          66.1628032243752,
          56.12266860113228
        ]
      }
    },
    {
      "type": "Feature",
      "properties": {
        "norad_id": 33881,
        "name": "IRIDIUM 33 DEB",
        "group": "iridium-33-debris",
        "lat": 61.81108511215614,
        "lon": 116.03078099870388,
        "alt_km": 727.374386918651,
        "timestamp": "2025-12-06T22:38:43.113327+00:00",
        "meta_object_name": "IRIDIUM 33 DEB",
        "meta_object_id": "1997-051BA",
        "meta_epoch": "2025-12-06T07:38:56.020416",
        "meta_mean_motion": 14.56393916,
        "meta_eccentricity": 0.00612815,
        "meta_inclination": 86.3871,
        "meta_ra_of_asc_node": 109.5319,
        "meta_arg_of_pericenter": 195.5267,
        "meta_mean_anomaly": 193.0658,
        "meta_ephemeris_type": 0,
        "meta_classification_type": "U",
        "meta_norad_cat_id": 33881,
        "meta_element_set_no": 999,
        "meta_rev_at_epoch": 87407,
        "meta_bstar": 0.003562561,
        "meta_mean_motion_dot": 0.00016256,
        "meta_mean_motion_ddot": 0,
        "tle_line1": "1 33881U 97051BA  25340.31870394  .00016256  00000+0  35626-2 0  9997",
        "tle_line2": "2 33881  86.3871 109.5319 0061281 195.5267 193.0658 14.56393916874074"
      },
      "geometry": {
        "type": "Point",
        "coordinates": [
          116.03078099870388,
          61.81108511215614
        ]
      }
    },
    {
      "type": "Feature",
      "properties": {
        "norad_id": 33884,
        "name": "IRIDIUM 33 DEB",
        "group": "iridium-33-debris",
        "lat": -65.07803802340781,
        "lon": 4.580072226905027,
        "alt_km": 640.693780497354,
        "timestamp": "2025-12-06T22:38:43.113337+00:00",
        "meta_object_name": "IRIDIUM 33 DEB",
        "meta_object_id": "1997-051BD",
        "meta_epoch": "2025-12-06T08:22:17.400864",
        "meta_mean_motion": 14.77245967,
        "meta_eccentricity": 0.00103461,
        "meta_inclination": 86.3691,
        "meta_ra_of_asc_node": 12.703,
        "meta_arg_of_pericenter": 347.5842,
        "meta_mean_anomaly": 26.4048,
        "meta_ephemeris_type": 0,
        "meta_classification_type": "U",
        "meta_norad_cat_id": 33884,
        "meta_element_set_no": 999,
        "meta_rev_at_epoch": 88753,
        "meta_bstar": 0.0022939215,
        "meta_mean_motion_dot": 0.00016315,
        "meta_mean_motion_ddot": 0,
        "tle_line1": "1 33884U 97051BD  25340.34881251  .00016315  00000+0  22939-2 0  9996",
        "tle_line2": "2 33884  86.3691  12.7030 0010346 347.5842  26.4048 14.77245967887538"
      },
      "geometry": {
        "type": "Point",
        "coordinates": [
          4.580072226905027,
          -65.07803802340781
        ]
      }
    }
  ]
}